<?xml version="1.0" encoding="UTF-8"?>
<ndm xmlns:xsi="http://www.w3.org/2001/XMLSchema-instance" xsi:noNamespaceSchemaLocation="https://sanaregistry.org/r/ndmxml_unqualified/ndmxml-2.0.0-master-2.0.xsd">
<omm id="CCSDS_OMM_VERS" version="2.0">
<header><CREATION_DATE/><ORIGINATOR/></header><body><segment><metadata><OBJECT_NAME>ONEWEB-0695</OBJECT_NAME><OBJECT_ID>2024-188J</OBJECT_ID><CENTER_NAME>EARTH</CENTER_NAME><REF_FRAME>TEME</REF_FRAME><TIME_SYSTEM>UTC</TIME_SYSTEM><MEAN_ELEMENT_THEORY>SGP4</MEAN_ELEMENT_THEORY></metadata><data><meanElements><EPOCH>2024-11-30T18:09:14.246496</EPOCH><MEAN_MOTION>14.82818915</MEAN_MOTION><ECCENTRICITY>.0003814</ECCENTRICITY><INCLINATION>86.5750</INCLINATION><RA_OF_ASC_NODE>152.6879</RA_OF_ASC_NODE><ARG_OF_PERICENTER>87.9452</ARG_OF_PERICENTER><MEAN_ANOMALY>272.2208</MEAN_ANOMALY></meanElements><tleParameters><EPHEMERIS_TYPE>0</EPHEMERIS_TYPE><CLASSIFICATION_TYPE>U</CLASSIFICATION_TYPE><NORAD_CAT_ID>61602</NORAD_CAT_ID><ELEMENT_SET_NO>999</ELEMENT_SET_NO><REV_AT_EPOCH>912</REV_AT_EPOCH><BSTAR>.49119E-3</BSTAR><MEAN_MOTION_DOT>.3998E-4</MEAN_MOTION_DOT><MEAN_MOTION_DDOT>0</MEAN_MOTION_DDOT></tleParameters></data></segment></body></omm>
<omm id="CCSDS_OMM_VERS" version="2.0">
<header><CREATION_DATE/><ORIGINATOR/></header><body><segment><metadata><OBJECT_NAME>ONEWEB-0697</OBJECT_NAME><OBJECT_ID>2024-188K</OBJECT_ID><CENTER_NAME>EARTH</CENTER_NAME><REF_FRAME>TEME</REF_FRAME><TIME_SYSTEM>UTC</TIME_SYSTEM><MEAN_ELEMENT_THEORY>SGP4</MEAN_ELEMENT_THEORY></metadata><data><meanElements><EPOCH>2024-11-30T23:03:33.160608</EPOCH><MEAN_MOTION>14.82839038</MEAN_MOTION><ECCENTRICITY>.0004207</ECCENTRICITY><INCLINATION>86.5698</INCLINATION><RA_OF_ASC_NODE>152.5771</RA_OF_ASC_NODE><ARG_OF_PERICENTER>99.8734</ARG_OF_PERICENTER><MEAN_ANOMALY>260.2964</MEAN_ANOMALY></meanElements><tleParameters><EPHEMERIS_TYPE>0</EPHEMERIS_TYPE><CLASSIFICATION_TYPE>U</CLASSIFICATION_TYPE><NORAD_CAT_ID>61603</NORAD_CAT_ID><ELEMENT_SET_NO>999</ELEMENT_SET_NO><REV_AT_EPOCH>742</REV_AT_EPOCH><BSTAR>-.14652E-2</BSTAR><MEAN_MOTION_DOT>-.11796E-3</MEAN_MOTION_DOT><MEAN_MOTION_DDOT>0</MEAN_MOTION_DDOT></tleParameters></data></segment></body></omm>
<omm id="CCSDS_OMM_VERS" version="2.0">
<header><CREATION_DATE/><ORIGINATOR/></header><body><segment><metadata><OBJECT_NAME>ONEWEB-0698</OBJECT_NAME><OBJECT_ID>2024-188L</OBJECT_ID><CENTER_NAME>EARTH</CENTER_NAME><REF_FRAME>TEME</REF_FRAME><TIME_SYSTEM>UTC</TIME_SYSTEM><MEAN_ELEMENT_THEORY>SGP4</MEAN_ELEMENT_THEORY></metadata><data><meanElements><EPOCH>2024-12-01T05:11:27.385152</EPOCH><MEAN_MOTION>14.82971743</MEAN_MOTION><ECCENTRICITY>.0008705</ECCENTRICITY><INCLINATION>86.5775</INCLINATION><RA_OF_ASC_NODE>152.4729</RA_OF_ASC_NODE><ARG_OF_PERICENTER>79.4546</ARG_OF_PERICENTER><MEAN_ANOMALY>280.7657</MEAN_ANOMALY></meanElements><tleParameters><EPHEMERIS_TYPE>0</EPHEMERIS_TYPE><CLASSIFICATION_TYPE>U</CLASSIFICATION_TYPE><NORAD_CAT_ID>61604</NORAD_CAT_ID><ELEMENT_SET_NO>999</ELEMENT_SET_NO><REV_AT_EPOCH>722</REV_AT_EPOCH><BSTAR>-.19463E-2</BSTAR><MEAN_MOTION_DOT>-.15728E-3</MEAN_MOTION_DOT><MEAN_MOTION_DDOT>0</MEAN_MOTION_DDOT></tleParameters></data></segment></body></omm>
<omm id="CCSDS_OMM_VERS" version="2.0">
<header><CREATION_DATE/><ORIGINATOR/></header><body><segment><metadata><OBJECT_NAME>ONEWEB-0699</OBJECT_NAME><OBJECT_ID>2024-188M</OBJECT_ID><CENTER_NAME>EARTH</CENTER_NAME><REF_FRAME>TEME</REF_FRAME><TIME_SYSTEM>UTC</TIME_SYSTEM><MEAN_ELEMENT_THEORY>SGP4</MEAN_ELEMENT_THEORY></metadata><data><meanElements><EPOCH>2024-12-01T14:00:01.000224</EPOCH><MEAN_MOTION>14.40828167</MEAN_MOTION><ECCENTRICITY>.000353</ECCENTRICITY><INCLINATION>86.9136</INCLINATION><RA_OF_ASC_NODE>153.0115</RA_OF_ASC_NODE><ARG_OF_PERICENTER>85.8484</ARG_OF_PERICENTER><MEAN_ANOMALY>277.9374</MEAN_ANOMALY></meanElements><tleParameters><EPHEMERIS_TYPE>0</EPHEMERIS_TYPE><CLASSIFICATION_TYPE>U</CLASSIFICATION_TYPE><NORAD_CAT_ID>61605</NORAD_CAT_ID><ELEMENT_SET_NO>999</ELEMENT_SET_NO><REV_AT_EPOCH>733</REV_AT_EPOCH><BSTAR>-.36682E+0</BSTAR><MEAN_MOTION_DOT>-.110218E-1</MEAN_MOTION_DOT><MEAN_MOTION_DDOT>0</MEAN_MOTION_DDOT></tleParameters></data></segment></body></omm>
<omm id="CCSDS_OMM_VERS" version="2.0">
<header><CREATION_DATE/><ORIGINATOR/></header><body><segment><metadata><OBJECT_NAME>ONEWEB-0700</OBJECT_NAME><OBJECT_ID>2024-188N</OBJECT_ID><CENTER_NAME>EARTH</CENTER_NAME><REF_FRAME>TEME</REF_FRAME><TIME_SYSTEM>UTC</TIME_SYSTEM><MEAN_ELEMENT_THEORY>SGP4</MEAN_ELEMENT_THEORY></metadata><data><meanElements><EPOCH>2024-12-01T14:00:01.000224</EPOCH><MEAN_MOTION>14.39547547</MEAN_MOTION><ECCENTRICITY>.0003137</ECCENTRICITY><INCLINATION>86.9217</INCLINATION><RA_OF_ASC_NODE>153.0021</RA_OF_ASC_NODE><ARG_OF_PERICENTER>76.0828</ARG_OF_PERICENTER><MEAN_ANOMALY>296.3115</MEAN_ANOMALY></meanElements><tleParameters><EPHEMERIS_TYPE>0</EPHEMERIS_TYPE><CLASSIFICATION_TYPE>U</CLASSIFICATION_TYPE><NORAD_CAT_ID>61606</NORAD_CAT_ID><ELEMENT_SET_NO>999</ELEMENT_SET_NO><REV_AT_EPOCH>738</REV_AT_EPOCH><BSTAR>-.37562E+0</BSTAR><MEAN_MOTION_DOT>-.1100069E-1</MEAN_MOTION_DOT><MEAN_MOTION_DDOT>0</MEAN_MOTION_DDOT></tleParameters></data></segment></body></omm>
<omm id="CCSDS_OMM_VERS" version="2.0">
<header><CREATION_DATE/><ORIGINATOR/></header><body><segment><metadata><OBJECT_NAME>ONEWEB-0701</OBJECT_NAME><OBJECT_ID>2024-188P</OBJECT_ID><CENTER_NAME>EARTH</CENTER_NAME><REF_FRAME>TEME</REF_FRAME><TIME_SYSTEM>UTC</TIME_SYSTEM><MEAN_ELEMENT_THEORY>SGP4</MEAN_ELEMENT_THEORY></metadata><data><meanElements><EPOCH>2024-12-01T12:00:00.999648</EPOCH><MEAN_MOTION>14.41211013</MEAN_MOTION><ECCENTRICITY>.0005716</ECCENTRICITY><INCLINATION>86.9126</INCLINATION><RA_OF_ASC_NODE>153.0187</RA_OF_ASC_NODE><ARG_OF_PERICENTER>69.2429</ARG_OF_PERICENTER><MEAN_ANOMALY>330.0245</MEAN_ANOMALY></meanElements><tleParameters><EPHEMERIS_TYPE>0</EPHEMERIS_TYPE><CLASSIFICATION_TYPE>U</CLASSIFICATION_TYPE><NORAD_CAT_ID>61607</NORAD_CAT_ID><ELEMENT_SET_NO>999</ELEMENT_SET_NO><REV_AT_EPOCH>751</REV_AT_EPOCH><BSTAR>-.34163E+0</BSTAR><MEAN_MOTION_DOT>-.1028262E-1</MEAN_MOTION_DOT><MEAN_MOTION_DDOT>0</MEAN_MOTION_DDOT></tleParameters></data></segment></body></omm>
<omm id="CCSDS_OMM_VERS" version="2.0">
<header><CREATION_DATE/><ORIGINATOR/></header><body><segment><metadata><OBJECT_NAME>ONEWEB-0702</OBJECT_NAME><OBJECT_ID>2024-188Q</OBJECT_ID><CENTER_NAME>EARTH</CENTER_NAME><REF_FRAME>TEME</REF_FRAME><TIME_SYSTEM>UTC</TIME_SYSTEM><MEAN_ELEMENT_THEORY>SGP4</MEAN_ELEMENT_THEORY></metadata><data><meanElements><EPOCH>2024-11-30T18:00:02.776032</EPOCH><MEAN_MOTION>14.82774520</MEAN_MOTION><ECCENTRICITY>.0008835</ECCENTRICITY><INCLINATION>86.5760</INCLINATION><RA_OF_ASC_NODE>152.6875</RA_OF_ASC_NODE><ARG_OF_PERICENTER>80.2869</ARG_OF_PERICENTER><MEAN_ANOMALY>279.9352</MEAN_ANOMALY></meanElements><tleParameters><EPHEMERIS_TYPE>0</EPHEMERIS_TYPE><CLASSIFICATION_TYPE>U</CLASSIFICATION_TYPE><NORAD_CAT_ID>61608</NORAD_CAT_ID><ELEMENT_SET_NO>999</ELEMENT_SET_NO><REV_AT_EPOCH>912</REV_AT_EPOCH><BSTAR>-.5684E-3</BSTAR><MEAN_MOTION_DOT>-.4559E-4</MEAN_MOTION_DOT><MEAN_MOTION_DDOT>0</MEAN_MOTION_DDOT></tleParameters></data></segment></body></omm>
<omm id="CCSDS_OMM_VERS" version="2.0">
<header><CREATION_DATE/><ORIGINATOR/></header><body><segment><metadata><OBJECT_NAME>ONEWEB-0704</OBJECT_NAME><OBJECT_ID>2024-188R</OBJECT_ID><CENTER_NAME>EARTH</CENTER_NAME><REF_FRAME>TEME</REF_FRAME><TIME_SYSTEM>UTC</TIME_SYSTEM><MEAN_ELEMENT_THEORY>SGP4</MEAN_ELEMENT_THEORY></metadata><data><meanElements><EPOCH>2024-12-01T14:00:01.000224</EPOCH><MEAN_MOTION>14.39374388</MEAN_MOTION><ECCENTRICITY>.0003984</ECCENTRICITY><INCLINATION>86.9239</INCLINATION><RA_OF_ASC_NODE>153.0410</RA_OF_ASC_NODE><ARG_OF_PERICENTER>108.8895</ARG_OF_PERICENTER><MEAN_ANOMALY>194.3691</MEAN_ANOMALY></meanElements><tleParameters><EPHEMERIS_TYPE>0</EPHEMERIS_TYPE><CLASSIFICATION_TYPE>U</CLASSIFICATION_TYPE><NORAD_CAT_ID>61609</NORAD_CAT_ID><ELEMENT_SET_NO>999</ELEMENT_SET_NO><REV_AT_EPOCH>734</REV_AT_EPOCH><BSTAR>-.37905E+0</BSTAR><MEAN_MOTION_DOT>-.1105942E-1</MEAN_MOTION_DOT><MEAN_MOTION_DDOT>0</MEAN_MOTION_DDOT></tleParameters></data></segment></body></omm>
<omm id="CCSDS_OMM_VERS" version="2.0">
<header><CREATION_DATE/><ORIGINATOR/></header><body><segment><metadata><OBJECT_NAME>ONEWEB-0705</OBJECT_NAME><OBJECT_ID>2024-188S</OBJECT_ID><CENTER_NAME>EARTH</CENTER_NAME><REF_FRAME>TEME</REF_FRAME><TIME_SYSTEM>UTC</TIME_SYSTEM><MEAN_ELEMENT_THEORY>SGP4</MEAN_ELEMENT_THEORY></metadata><data><meanElements><EPOCH>2024-12-01T14:00:01.000224</EPOCH><MEAN_MOTION>14.42407204</MEAN_MOTION><ECCENTRICITY>.0006716</ECCENTRICITY><INCLINATION>86.9040</INCLINATION><RA_OF_ASC_NODE>152.9390</RA_OF_ASC_NODE><ARG_OF_PERICENTER>86.7046</ARG_OF_PERICENTER><MEAN_ANOMALY>146.9008</MEAN_ANOMALY></meanElements><tleParameters><EPHEMERIS_TYPE>0</EPHEMERIS_TYPE><CLASSIFICATION_TYPE>U</CLASSIFICATION_TYPE><NORAD_CAT_ID>61610</NORAD_CAT_ID><ELEMENT_SET_NO>999</ELEMENT_SET_NO><REV_AT_EPOCH>747</REV_AT_EPOCH><BSTAR>-.34299E+0</BSTAR><MEAN_MOTION_DOT>-.1066345E-1</MEAN_MOTION_DOT><MEAN_MOTION_DDOT>0</MEAN_MOTION_DDOT></tleParameters></data></segment></body></omm>

</ndm>
